[{"OBJECT_NAME":"SPACEMOBILE-001","OBJECT_ID":"2024-163C","EPOCH":"2026-03-09T21:48:30.828096","MEAN_MOTION":15.2107526,"ECCENTRICITY":0.00085319,"INCLINATION":52.9724,"RA_OF_ASC_NODE":45.7553,"ARG_OF_PERICENTER":183.2092,"MEAN_ANOMALY":176.8849,"EPHEMERIS_TYPE":0,"CLASSIFICATION_TYPE":"U","NORAD_CAT_ID":61047,"ELEMENT_SET_NO":999,"REV_AT_EPOCH":8265,"BSTAR":0.00077800145,"MEAN_MOTION_DOT":0.00017238,"MEAN_MOTION_DDOT":0},{"OBJECT_NAME":"ROADS 2","OBJECT_ID":"2025-135X","EPOCH":"2026-03-09T20:33:50.973408","MEAN_MOTION":15.22472145,"ECCENTRICITY":0.0002782,"INCLINATION":97.4653,"RA_OF_ASC_NODE":185.5116,"ARG_OF_PERICENTER":96.6927,"MEAN_ANOMALY":263.4626,"EPHEMERIS_TYPE":0,"CLASSIFICATION_TYPE":"U","NORAD_CAT_ID":64549,"ELEMENT_SET_NO":999,"REV_AT_EPOCH":3979,"BSTAR":0.00041430645,"MEAN_MOTION_DOT":9.527e-5,"MEAN_MOTION_DDOT":0}]
